[{"OBJECT_NAME":"STARLINK-32416","OBJECT_ID":"2024-187R","EPOCH":"2026-03-09T23:13:24.880512","MEAN_MOTION":15.30191727,"ECCENTRICITY":0.00011293,"INCLINATION":53.1604,"RA_OF_ASC_NODE":48.291,"ARG_OF_PERICENTER":72.6849,"MEAN_ANOMALY":287.4276,"EPHEMERIS_TYPE":0,"CLASSIFICATION_TYPE":"U","NORAD_CAT_ID":61589,"ELEMENT_SET_NO":999,"REV_AT_EPOCH":7934,"BSTAR":5.3882708e-5,"MEAN_MOTION_DOT":1.237e-5,"MEAN_MOTION_DDOT":0},{"OBJECT_NAME":"MAGION 3","OBJECT_ID":"1991-086E","EPOCH":"2026-03-09T13:21:19.926432","MEAN_MOTION":12.20904134,"ECCENTRICITY":0.14519361,"INCLINATION":82.5296,"RA_OF_ASC_NODE":245.0216,"ARG_OF_PERICENTER":318.5653,"MEAN_ANOMALY":31.3694,"EPHEMERIS_TYPE":0,"CLASSIFICATION_TYPE":"U","NORAD_CAT_ID":21835,"ELEMENT_SET_NO":999,"REV_AT_EPOCH":50141,"BSTAR":0.00027550962,"MEAN_MOTION_DOT":1.51e-5,"MEAN_MOTION_DDOT":0}]
